{"type": "FeatureCollection", "features": [ {"type": "Feature", "properties": {"norad_id": 66948, "name": "STARLINK-36116", "group": "last-30-days", "lat": 41.91395106385905, "lon": 79.93934259216881, "alt_km": 289.0613615914399, "timestamp": "2025-12-15T07:02:36.376265+00:00", "meta": {"OBJECT_NAME": "STARLINK-36116", "OBJECT_ID": "2025-286Z", "EPOCH": "2025-12-14T20:00:06.000192", "MEAN_MOTION": 15.93968064, "ECCENTRICITY": 5.725e-05, "INCLINATION": 53.156, "RA_OF_ASC_NODE": 39.9792, "ARG_OF_PERICENTER": 75.4578, "MEAN_ANOMALY": 220.7658, "EPHEMERIS_TYPE": 0, "CLASSIFICATION_TYPE": "U", "NORAD_CAT_ID": 66948, "ELEMENT_SET_NO": 999, "REV_AT_EPOCH": 233, "BSTAR": -0.0040980956, "MEAN_MOTION_DOT": -0.01537834, "MEAN_MOTION_DDOT": 0.00068286809}, "tle": {"line1": "1 66948U 25286Z   25348.83340278 -.01537834  68287-3 -40981-2 0  9994", "line2": "2 66948  53.1560  39.9792 0000572  75.4578 220.7658 15.93968064  2333"}}, "geometry": {"type": "Point", "coordinates": [79.93934259216881, 41.91395106385905]}}, {"type": "Feature", "properties": {"norad_id": 66949, "name": "STARLINK-36096", "group": "last-30-days", "lat": 43.87017144632651, "lon": 83.74744714742262, "alt_km": 288.3852052549382, "timestamp": "2025-12-15T07:02:36.376280+00:00", "meta": {"OBJECT_NAME": "STARLINK-36096", "OBJECT_ID": "2025-286AA", "EPOCH": "2025-12-14T20:00:06.000192", "MEAN_MOTION": 15.94091795, "ECCENTRICITY": 6.51e-05, "INCLINATION": 53.156, "RA_OF_ASC_NODE": 39.9726, "ARG_OF_PERICENTER": 71.0352, "MEAN_ANOMALY": 228.4068, "EPHEMERIS_TYPE": 0, "CLASSIFICATION_TYPE": "U", "NORAD_CAT_ID": 66949, "ELEMENT_SET_NO": 999, "REV_AT_EPOCH": 233, "BSTAR": -0.0041375436, "MEAN_MOTION_DOT": -0.01562554, "MEAN_MOTION_DDOT": 0.00070399492}, "tle": {"line1": "1 66949U 25286AA  25348.83340278 -.01562554  70399-3 -41375-2 0  9997", "line2": "2 66949  53.1560  39.9726 0000651  71.0352 228.4068 15.94091795  2330"}}, "geometry": {"type": "Point", "coordinates": [83.74744714742262, 43.87017144632651]}}, {"type": "Feature", "properties": {"norad_id": 66950, "name": "STARLINK-36111", "group": "last-30-days", "lat": 45.795841492454414, "lon": 88.05708487681808, "alt_km": 287.754084013769, "timestamp": "2025-12-15T07:02:36.376291+00:00", "meta": {"OBJECT_NAME": "STARLINK-36111", "OBJECT_ID": "2025-286AB", "EPOCH": "2025-12-14T20:00:06.000192", "MEAN_MOTION": 15.94218768, "ECCENTRICITY": 7.412e-05, "INCLINATION": 53.1561, "RA_OF_ASC_NODE": 39.9656, "ARG_OF_PERICENTER": 77.2397, "MEAN_ANOMALY": 225.6218, "EPHEMERIS_TYPE": 0, "CLASSIFICATION_TYPE": "U", "NORAD_CAT_ID": 66950, "ELEMENT_SET_NO": 999, "REV_AT_EPOCH": 233, "BSTAR": -0.0041776036, "MEAN_MOTION_DOT": -0.01588044, "MEAN_MOTION_DDOT": 0.00072613274}, "tle": {"line1": "1 66950U 25286AB  25348.83340278 -.01588044  72613-3 -41776-2 0  9997", "line2": "2 66950  53.1561  39.9656 0000741  77.2397 225.6218 15.94218768  2339"}}, "geometry": {"type": "Point", "coordinates": [88.05708487681808, 45.795841492454414]}}, {"type": "Feature", "properties": {"norad_id": 66951, "name": "STARLINK-35999", "group": "last-30-days", "lat": 46.75195991667363, "lon": 90.47193478194731, "alt_km": 287.45733014626694, "timestamp": "2025-12-15T07:02:36.376301+00:00", "meta": {"OBJECT_NAME": "STARLINK-35999", "OBJECT_ID": "2025-286AC", "EPOCH": "2025-12-14T20:00:06.000192", "MEAN_MOTION": 15.94284921, "ECCENTRICITY": 6.888e-05, "INCLINATION": 53.1561, "RA_OF_ASC_NODE": 39.9617, "ARG_OF_PERICENTER": 74.078, "MEAN_ANOMALY": 230.6012, "EPHEMERIS_TYPE": 0, "CLASSIFICATION_TYPE": "U", "NORAD_CAT_ID": 66951, "ELEMENT_SET_NO": 999, "REV_AT_EPOCH": 233, "BSTAR": -0.0041820567, "MEAN_MOTION_DOT": -0.01595245, "MEAN_MOTION_DDOT": 0.00073267585}, "tle": {"line1": "1 66951U 25286AC  25348.83340278 -.01595245  73268-3 -41821-2 0  9997", "line2": "2 66951  53.1561  39.9617 0000688  74.0780 230.6012 15.94284921  2330"}}, "geometry": {"type": "Point", "coordinates": [90.47193478194731, 46.75195991667363]}}, {"type": "Feature", "properties": {"norad_id": 66952, "name": "STARLINK-36122", "group": "last-30-days", "lat": 44.8734573966714, "lon": 85.9109659574513, "alt_km": 288.0280329262696, "timestamp": "2025-12-15T07:02:36.376310+00:00", "meta": {"OBJECT_NAME": "STARLINK-36122", "OBJECT_ID": "2025-286AD", "EPOCH": "2025-12-14T20:00:06.000192", "MEAN_MOTION": 15.94156246, "ECCENTRICITY": 7.434e-05, "INCLINATION": 53.1562, "RA_OF_ASC_NODE": 39.9691, "ARG_OF_PERICENTER": 72.7342, "MEAN_ANOMALY": 228.4555, "EPHEMERIS_TYPE": 0, "CLASSIFICATION_TYPE": "U", "NORAD_CAT_ID": 66952, "ELEMENT_SET_NO": 999, "REV_AT_EPOCH": 233, "BSTAR": -0.0041649617, "MEAN_MOTION_DOT": -0.01578111, "MEAN_MOTION_DDOT": 0.0007173689}, "tle": {"line1": "1 66952U 25286AD  25348.83340278 -.01578111  71737-3 -41650-2 0  9990", "line2": "2 66952  53.1562  39.9691 0000743  72.7342 228.4555 15.94156246  2330"}}, "geometry": {"type": "Point", "coordinates": [85.9109659574513, 44.8734573966714]}}, {"type": "Feature", "properties": {"norad_id": 66953, "name": "HULIANWANG DIGUI-114", "group": "last-30-days", "lat": 12.98305634582604, "lon": 164.415836705641, "alt_km": 999.9808297544096, "timestamp": "2025-12-15T07:02:36.376321+00:00", "meta": {"OBJECT_NAME": "HULIANWANG DIGUI-114", "OBJECT_ID": "2025-287A", "EPOCH": "2025-12-11T05:43:48.442368", "MEAN_MOTION": 13.68688345, "ECCENTRICITY": 0.00085506, "INCLINATION": 86.4966, "RA_OF_ASC_NODE": 346.7027, "ARG_OF_PERICENTER": 209.4482, "MEAN_ANOMALY": 150.6197, "EPHEMERIS_TYPE": 0, "CLASSIFICATION_TYPE": "U", "NORAD_CAT_ID": 66953, "ELEMENT_SET_NO": 999, "REV_AT_EPOCH": 32, "BSTAR": 1.3583638e-05, "MEAN_MOTION_DOT": 2.8e-07, "MEAN_MOTION_DDOT": 0}, "tle": {"line1": "1 66953U 25287A   25345.23875512  .00000028  00000+0  13584-4 0  9999", "line2": "2 66953  86.4966 346.7027 0008550 209.4482 150.6197 13.68688345   322"}}, "geometry": {"type": "Point", "coordinates": [164.415836705641, 12.98305634582604]}}, {"type": "Feature", "properties": {"norad_id": 66954, "name": "HULIANWANG DIGUI-115", "group": "last-30-days", "lat": 10.672690072559682, "lon": 164.5663553389987, "alt_km": 999.6210368458451, "timestamp": "2025-12-15T07:02:36.376334+00:00", "meta": {"OBJECT_NAME": "HULIANWANG DIGUI-115", "OBJECT_ID": "2025-287B", "EPOCH": "2025-12-14T23:12:05.154912", "MEAN_MOTION": 13.68791881, "ECCENTRICITY": 0.00087473, "INCLINATION": 86.4972, "RA_OF_ASC_NODE": 345.3468, "ARG_OF_PERICENTER": 197.0382, "MEAN_ANOMALY": 163.0485, "EPHEMERIS_TYPE": 0, "CLASSIFICATION_TYPE": "U", "NORAD_CAT_ID": 66954, "ELEMENT_SET_NO": 999, "REV_AT_EPOCH": 83, "BSTAR": 2.5809268e-05, "MEAN_MOTION_DOT": 3.9e-07, "MEAN_MOTION_DDOT": 0}, "tle": {"line1": "1 66954U 25287B   25348.96672633  .00000039  00000+0  25809-4 0  9997", "line2": "2 66954  86.4972 345.3468 0008747 197.0382 163.0485 13.68791881   837"}}, "geometry": {"type": "Point", "coordinates": [164.5663553389987, 10.672690072559682]}}, {"type": "Feature", "properties": {"norad_id": 66955, "name": "HULIANWANG DIGUI-116", "group": "last-30-days", "lat": 8.100145873569712, "lon": 164.71741477935518, "alt_km": 999.7021303312686, "timestamp": "2025-12-15T07:02:36.376347+00:00", "meta": {"OBJECT_NAME": "HULIANWANG DIGUI-116", "OBJECT_ID": "2025-287C", "EPOCH": "2025-12-14T02:08:18.133728", "MEAN_MOTION": 13.68903211, "ECCENTRICITY": 0.00080818, "INCLINATION": 86.4907, "RA_OF_ASC_NODE": 345.6576, "ARG_OF_PERICENTER": 193.9217, "MEAN_ANOMALY": 166.172, "EPHEMERIS_TYPE": 0, "CLASSIFICATION_TYPE": "U", "NORAD_CAT_ID": 66955, "ELEMENT_SET_NO": 999, "REV_AT_EPOCH": 71, "BSTAR": 2.5654516e-05, "MEAN_MOTION_DOT": 3.9e-07, "MEAN_MOTION_DDOT": 0}, "tle": {"line1": "1 66955U 25287C   25348.08909877  .00000039  00000+0  25655-4 0  9993", "line2": "2 66955  86.4907 345.6576 0008081 193.9217 166.1720 13.68903211   717"}}, "geometry": {"type": "Point", "coordinates": [164.71741477935518, 8.100145873569712]}}, {"type": "Feature", "properties": {"norad_id": 66956, "name": "HULIANWANG DIGUI-117", "group": "last-30-days", "lat": 5.474465788990863, "lon": 164.89206915562414, "alt_km": 1000.0315338103728, "timestamp": "2025-12-15T07:02:36.376360+00:00", "meta": {"OBJECT_NAME": "HULIANWANG DIGUI-117", "OBJECT_ID": "2025-287D", "EPOCH": "2025-12-11T19:45:00.614592", "MEAN_MOTION": 13.6901764, "ECCENTRICITY": 0.00072845, "INCLINATION": 86.4968, "RA_OF_ASC_NODE": 346.4938, "ARG_OF_PERICENTER": 195.1574, "MEAN_ANOMALY": 164.9368, "EPHEMERIS_TYPE": 0, "CLASSIFICATION_TYPE": "U", "NORAD_CAT_ID": 66956, "ELEMENT_SET_NO": 999, "REV_AT_EPOCH": 40, "BSTAR": 1.8810541e-05, "MEAN_MOTION_DOT": 3.3e-07, "MEAN_MOTION_DDOT": 0}, "tle": {"line1": "1 66956U 25287D   25345.82292378  .00000033  00000+0  18811-4 0  9994", "line2": "2 66956  86.4968 346.4938 0007284 195.1574 164.9368 13.69017640   403"}}, "geometry": {"type": "Point", "coordinates": [164.89206915562414, 5.474465788990863]}}, {"type": "Feature", "properties": {"norad_id": 66957, "name": "HULIANWANG DIGUI-118", "group": "last-30-days", "lat": 2.8149210540459793, "lon": 165.0508058945562, "alt_km": 999.9572873432489, "timestamp": "2025-12-15T07:02:36.376370+00:00", "meta": {"OBJECT_NAME": "HULIANWANG DIGUI-118", "OBJECT_ID": "2025-287E", "EPOCH": "2025-12-12T16:47:31.774848", "MEAN_MOTION": 13.69137019, "ECCENTRICITY": 0.00072192, "INCLINATION": 86.4945, "RA_OF_ASC_NODE": 346.17, "ARG_OF_PERICENTER": 190.5502, "MEAN_ANOMALY": 169.5507, "EPHEMERIS_TYPE": 0, "CLASSIFICATION_TYPE": "U", "NORAD_CAT_ID": 66957, "ELEMENT_SET_NO": 999, "REV_AT_EPOCH": 52, "BSTAR": -0.00019372766, "MEAN_MOTION_DOT": -1.51e-06, "MEAN_MOTION_DDOT": 0}, "tle": {"line1": "1 66957U 25287E   25346.69967332 -.00000151  00000+0 -19373-3 0  9996", "line2": "2 66957  86.4945 346.1700 0007219 190.5502 169.5507 13.69137019   523"}}, "geometry": {"type": "Point", "coordinates": [165.0508058945562, 2.8149210540459793]}}]}